H1 CPF 01  gfz 2021 01 19 13  5192 terrasarx 
H2 0702601  6201 31698    2021 01 19 12 59 42 2021 01 24 00 00 42   120 1 1  0 0 0
H9
10 0 59233  63342.000000  0    4640286.875   -148068.761   5079544.194
10 0 59233  63462.000000  0    3931085.682   -335014.023   5636930.261
10 0 59233  63582.000000  0    3150129.600   -503070.182   6095177.082
10 0 59233  63702.000000  0    2311442.995   -648172.605   6446264.477
10 0 59233  63822.000000  0    1430111.491   -766913.080   6684055.213
10 0 59233  63942.000000  0     522006.702   -856614.526   6804397.589
10 0 59233  64062.000000  0    -396501.786   -915387.825   6805192.400
10 0 59233  64182.000000  0   -1308840.835   -942170.404   6686426.147
10 0 59233  64302.000000  0   -2198531.337   -936745.468   6450170.681
10 0 59233  64422.000000  0   -3049483.967   -899741.441   6100549.195
10 0 59233  64542.000000  0   -3846290.433   -832611.895   5643670.550
10 0 59233  64662.000000  0   -4574506.671   -737597.085   5087529.499
10 0 59233  64782.000000  0   -5220921.467   -617667.091   4441872.618
10 0 59233  64902.000000  0   -5773804.228   -476447.345   3718031.533
10 0 59233  65022.000000  0   -6223126.433   -318128.125   2928726.468
10 0 59233  65142.000000  0   -6560753.508   -147359.870   2087844.261
10 0 59233  65262.000000  0   -6780602.807     30863.796   1210191.381
10 0 59233  65382.000000  0   -6878761.050    211331.375    311226.908
10 0 59233  65502.000000  0   -6853558.402    388744.708   -593218.101
10 0 59233  65622.000000  0   -6705596.733    557853.006  -1487228.809
10 0 59233  65742.000000  0   -6437731.487    713585.421  -2355094.397
10 0 59233  65862.000000  0   -6055011.277    851179.292  -3181590.500
10 0 59233  65982.000000  0   -5564572.229    966301.185  -3952252.914
10 0 59233  66102.000000  0   -4975491.054   1055156.974  -4653630.893
10 0 59233  66222.000000  0   -4298604.097   1114588.611  -5273518.332
10 0 59233  66342.000000  0   -3546296.368   1142155.541  -5801158.587
10 0 59233  66462.000000  0   -2732266.452   1136198.940  -6227421.153
10 0 59233  66582.000000  0   -1871272.309   1095887.746  -6544948.132
10 0 59233  66702.000000  0    -978862.191   1021247.497  -6748270.139
10 0 59233  66822.000000  0     -71096.454    913169.710  -6833889.318
10 0 59233  66942.000000  0     835734.177    773402.820  -6800332.390
10 0 59233  67062.000000  0    1725393.580    604524.424  -6648175.860
10 0 59233  67182.000000  0    2581985.567    409894.949  -6380037.268
10 0 59233  67302.000000  0    3390232.531    193594.095  -6000534.940
10 0 59233  67422.000000  0    4135744.880    -39660.016  -5516215.791
10 0 59233  67542.000000  0    4805276.272   -284607.596  -4935453.179
10 0 59233  67662.000000  0    5386964.015   -535557.926  -4268314.442
10 0 59233  67782.000000  0    5870547.287   -786512.959  -3526396.123
10 0 59233  67902.000000  0    6247558.403  -1031301.109  -2722630.780
10 0 59233  68022.000000  0    6511483.397  -1263718.907  -1871066.964
10 0 59233  68142.000000  0    6657887.287  -1477676.613   -986624.876
10 0 59233  68262.000000  0    6684499.328  -1667344.346    -84832.599
10 0 59233  68382.000000  0    6591256.608  -1827295.357    818451.752
10 0 59233  68502.000000  0    6380302.961  -1952642.504   1707327.349
10 0 59233  68622.000000  0    6055943.109  -2039164.524   2566139.303
10 0 59233  68742.000000  0    5624553.267  -2083418.231   3379763.670
10 0 59233  68862.000000  0    5094449.476  -2082833.771   4133880.627
10 0 59233  68982.000000  0    4475718.912  -2035791.052   4815229.777
10 0 59233  69102.000000  0    3780020.232  -1941674.897   5411844.327
10 0 59233  69222.000000  0    3020354.927  -1800909.160   5913261.107
10 0 59233  69342.000000  0    2210815.531  -1614967.916   6310699.270
10 0 59233  69462.000000  0    1366318.837  -1386364.675   6597208.119
10 0 59233  69582.000000  0     502327.117  -1118619.515   6767782.979
10 0 59233  69702.000000  0    -365436.859   -816204.132   6819446.849
10 0 59233  69822.000000  0   -1221275.291   -484466.647   6751297.922
10 0 59233  69942.000000  0   -2049797.770   -129537.322   6564524.145
10 0 59233  70062.000000  0   -2836196.672    241784.160   6262384.096
10 0 59233  70182.000000  0   -3566511.978    622157.790   5850154.669
10 0 59233  70302.000000  0   -4227882.038   1003846.380   5335045.129
10 0 59233  70422.000000  0   -4808775.573   1378870.763   4726077.127
10 0 59233  70542.000000  0   -5299200.165   1739174.963   4033932.156
10 0 59233  70662.000000  0   -5690882.430   2076797.052   3270767.374
10 0 59233  70782.000000  0   -5977415.812   2384042.325   2450003.806
10 0 59233  70902.000000  0   -6154373.690   2653654.957   1586089.592
10 0 59233  71022.000000  0   -6219384.457   2878984.251    694241.098
10 0 59233  71142.000000  0   -6172164.181   3054140.473   -209832.883
10 0 59233  71262.000000  0   -6014507.198   3174136.356  -1110216.286
10 0 59233  71382.000000  0   -5750234.885   3235010.245  -1991074.898
10 0 59233  71502.000000  0   -5385103.512   3233928.795  -2836943.867
10 0 59233  71622.000000  0   -4926672.861   3169265.202  -3633005.186
10 0 59233  71742.000000  0   -4384141.184   3040652.269  -4365349.600
10 0 59233  71862.000000  0   -3768151.074   2849009.179  -5021217.327
10 0 59233  71982.000000  0   -3090571.980   2596541.819  -5589214.077
10 0 59233  72102.000000  0   -2364266.060   2286718.147  -6059499.254
10 0 59233  72222.000000  0   -1602840.306   1924219.037  -6423946.973
10 0 59233  72342.000000  0    -820390.141   1514864.864  -6676274.101
10 0 59233  72462.000000  0     -31241.650   1065521.077  -6812137.694
10 0 59233  72582.000000  0     750304.865    583983.842  -6829201.098
10 0 59233  72702.000000  0    1510227.763     78847.686  -6727171.758
10 0 59233  72822.000000  0    2235030.915   -440644.886  -6507805.011
10 0 59233  72942.000000  0    2911977.671   -964767.894  -6174877.007
10 0 59233  73062.000000  0    3529312.117  -1483489.216  -5734126.425
10 0 59233  73182.000000  0    4076462.449  -1986657.494  -5193165.776
10 0 59233  73302.000000  0    4544225.971  -2464198.643  -4561361.660
10 0 59233  73422.000000  0    4924929.490  -2906316.499  -3849682.934
10 0 59233  73542.000000  0    5212562.730  -3303693.337  -3070519.957
10 0 59233  73662.000000  0    5402882.765  -3647686.643  -2237475.712
10 0 59233  73782.000000  0    5493484.895  -3930517.313  -1365130.924
10 0 59233  73902.000000  0    5483837.800  -4145444.892   -468788.363
10 0 59233  74022.000000  0    5375281.810  -4286925.159    435800.124
10 0 59233  74142.000000  0    5170989.308  -4350745.890   1332717.219
10 0 59233  74262.000000  0    4875886.656  -4334136.040   2206169.381
10 0 59233  74382.000000  0    4496540.955  -4235844.818   3040774.527
10 0 59233  74502.000000  0    4041015.006  -4056189.743   3821839.458
10 0 59233  74622.000000  0    3518693.961  -3797073.676   4535624.189
10 0 59233  74742.000000  0    2940086.612  -3461968.555   5169586.706
10 0 59233  74862.000000  0    2316609.070  -3055867.056   5712602.382
10 0 59233  74982.000000  0    1660354.745  -2585204.287   6155156.737
10 0 59233  75102.000000  0     983855.511  -2057751.195   6489506.247
10 0 59233  75222.000000  0     299840.198  -1482482.836   6709807.620
10 0 59233  75342.000000  0    -379005.590   -869423.240   6812214.043
10 0 59233  75462.000000  0   -1040273.880   -229469.192   6794937.729
10 0 59233  75582.000000  0   -1672060.004    425803.236   6658278.967
10 0 59233  75702.000000  0   -2263176.118   1084347.496   6404621.273
10 0 59233  75822.000000  0   -2803349.367   1733866.992   6038392.559
10 0 59233  75942.000000  0   -3283401.588   2362043.960   5565993.030
10 0 59233  76062.000000  0   -3695408.649   2956774.023   4995690.202
10 0 59233  76182.000000  0   -4032835.890   3506401.612   4337479.829
10 0 59233  76302.000000  0   -4290646.960   3999951.708   3602915.784
10 0 59233  76422.000000  0   -4465383.900   4427353.714   2804910.158
10 0 59233  76542.000000  0   -4555215.025   4779651.982   1957505.631
10 0 59233  76662.000000  0   -4559949.405   5049197.131   1075624.732
10 0 59233  76782.000000  0   -4481018.781   5229812.655    174801.383
10 0 59233  76902.000000  0   -4321427.218   5316934.498   -729100.014
10 0 59233  77022.000000  0   -4085667.798   5307719.506  -1620174.734
10 0 59233  77142.000000  0   -3779607.194   5201115.308  -2482767.071
10 0 59233  77262.000000  0   -3410344.853   4997896.360  -3301751.851
10 0 59233  77382.000000  0   -2986048.721   4700660.874  -4062804.002
10 0 59233  77502.000000  0   -2515773.212   4313791.493  -4752647.989
10 0 59233  77622.000000  0   -2009264.386   3843382.597  -5359283.698
10 0 59233  77742.000000  0   -1476757.773   3297137.319  -5872187.442
10 0 59233  77862.000000  0    -928771.674   2684234.008  -6282485.791
10 0 59233  77982.000000  0    -375900.497   2015165.965  -6583097.807
10 0 59233  78102.000000  0     171386.798   1301559.671  -6768845.512
10 0 59233  78222.000000  0     702939.861    555973.756  -6836534.134
10 0 59233  78342.000000  0    1209111.182   -208318.193  -6785001.902
10 0 59233  78462.000000  0    1680927.176   -977559.644  -6615136.710
10 0 59233  78582.000000  0    2110242.948  -1737752.193  -6329861.577
10 0 59233  78702.000000  0    2489880.837  -2474903.720  -5934090.084
10 0 59233  78822.000000  0    2813750.074  -3175281.010  -5434652.030
10 0 59233  78942.000000  0    3076947.086  -3825665.940  -4840187.082
10 0 59233  79062.000000  0    3275831.845  -4413606.239  -4161003.985
10 0 59233  79182.000000  0    3408079.384  -4927656.002  -3408912.288
10 0 59233  79302.000000  0    3472707.673  -5357605.209  -2597026.889
10 0 59233  79422.000000  0    3470078.405  -5694691.646  -1739543.671
10 0 59233  79542.000000  0    3401870.593  -5931787.118   -851491.991
10 0 59233  79662.000000  0    3271027.156  -6063555.443     51532.174
10 0 59233  79782.000000  0    3081673.848  -6086575.063    953646.747
99
